NORAD_CAT_ID,OBJECT_NAME,OBJECT_TYPE,EPOCH,MEAN_MOTION,ECCENTRICITY,INCLINATION,RA_OF_ASC_NODE,ARG_OF_PERICENTER,MEAN_ANOMALY,BSTAR,MEAN_MOTION_DOT,MEAN_MOTION_DDOT,TLE_LINE0,TLE_LINE1,TLE_LINE2,SEMIMAJOR_AXIS,PERIOD,APOGEE,PERIGEE,DECAYED
53567.0,STARLINK-4585,PAYLOAD,2024-02-22 15:03:33,15.08842282,0.0001623,53.2175,163.4326,73.7892,286.3279,8.0523e-05,9.94e-06,0.0,0 STARLINK-4585,1 53567U 22101AS  24053.62747579  .00000994  00000-0  80523-4 0  9997,2 53567  53.2175 163.4326 0001623  73.7892 286.3279 15.08842282 83811,6917.873,95.437,540.861,538.616,0.0
53567.0,STARLINK-4585,PAYLOAD,2024-02-23 13:18:57,15.0885341,0.0001402,53.2166,159.2698,87.869,272.2463,4.8477e-05,4.84e-06,0.0,0 STARLINK-4585,1 53567U 22101AS  24054.55482704  .00000484  00000-0  48477-4 0  9992,2 53567  53.2166 159.2698 0001402  87.8690 272.2463 15.08853410 83952,6917.839,95.437,540.674,538.735,0.0
53567.0,STARLINK-4585,PAYLOAD,2024-02-24 11:34:21,15.08836676,0.0001383,53.2156,155.1072,76.2689,283.8457,5.5022e-05,5.88e-06,0.0,0 STARLINK-4585,1 53567U 22101AS  24055.48219675  .00000588  00000-0  55022-4 0  9999,2 53567  53.2156 155.1072 0001383  76.2689 283.8457 15.08836676 84092,6917.891,95.438,540.712,538.799,0.0
53567.0,STARLINK-4585,PAYLOAD,2024-02-24 13:09:44,15.08842679,0.000138,53.2167,154.8076,85.2171,274.8979,2.3653e-05,8.9e-07,0.0,0 STARLINK-4585,1 53567U 22101AS  24055.54843351  .00000089  00000-0  23653-4 0  9991,2 53567  53.2167 154.8076 0001380  85.2171 274.8979 15.08842679 84108,6917.872,95.437,540.692,538.783,0.0
53567.0,STARLINK-4585,PAYLOAD,2024-02-25 11:25:08,15.0884658,0.0001456,53.2169,150.6431,91.5079,268.608,1.0085e-05,-1.27e-06,0.0,0 STARLINK-4585,1 53567U 22101AS  24056.47579073 -.00000127  00000-0  10085-4 0  9990,2 53567  53.2169 150.6431 0001456  91.5079 268.6080 15.08846580 84244,6917.86,95.437,540.733,538.718,0.0
53567.0,STARLINK-4585,PAYLOAD,2024-02-25 13:00:31,15.08851546,0.0001442,53.2168,150.3479,88.5305,271.5852,6.6602e-05,7.72e-06,0.0,0 STARLINK-4585,1 53567U 22101AS  24056.54202610  .00000772  00000-0  66602-4 0  9999,2 53567  53.2168 150.3479 0001442  88.5305 271.5852 15.08851546 84254,6917.845,95.437,540.708,538.713,0.0
53567.0,STARLINK-4585,PAYLOAD,2024-02-26 11:15:56,15.08831035,0.0001479,53.2169,146.185,104.4731,255.6425,2.4426e-05,1.01e-06,0.0,0 STARLINK-4585,1 53567U 22101AS  24057.46940429  .00000101  00000-0  24426-4 0  9992,2 53567  53.2169 146.1850 0001479 104.4731 255.6425 15.08831035 84397,6917.908,95.438,540.796,538.75,0.0
53567.0,STARLINK-4585,PAYLOAD,2024-02-26 12:51:19,15.08830574,0.0001528,53.2173,145.8882,101.0892,259.0272,2.0434e-05,3.7e-07,0.0,0 STARLINK-4585,1 53567U 22101AS  24057.53564534  .00000037  00000-0  20434-4 0  9992,2 53567  53.2173 145.8882 0001528 101.0892 259.0272 15.08830574 84406,6917.909,95.438,540.831,538.717,0.0
53567.0,STARLINK-4585,PAYLOAD,2024-02-27 12:42:06,15.08847366,0.0001409,53.2173,141.4289,103.2887,256.8262,5.6858e-05,6.17e-06,0.0,0 STARLINK-4585,1 53567U 22101AS  24058.52923691  .00000617  00000-0  56858-4 0  9998,2 53567  53.2173 141.4289 0001409 103.2887 256.8262 15.08847366 84552,6917.858,95.437,540.698,538.748,0.0
53567.0,STARLINK-4585,PAYLOAD,2024-02-27 22:14:25,15.08842123,0.0001398,53.2162,139.6452,103.5047,256.6101,3.9262e-05,3.37e-06,0.0,0 STARLINK-4585,1 53567U 22101AS  24058.92667910  .00000337  00000-0  39262-4 0  9990,2 53567  53.2162 139.6452 0001398 103.5047 256.6101 15.08842123 84612,6917.874,95.437,540.706,538.772,0.0
53567.0,STARLINK-4585,PAYLOAD,2024-02-28 10:57:30,15.0883863,0.0001491,53.2164,137.2668,106.9703,253.1453,0.00012769,1.745e-05,0.0,0 STARLINK-4585,1 53567U 22101AS  24059.45660272  .00001745  00000-0  12769-3 0  9999,2 53567  53.2164 137.2668 0001491 106.9703 253.1453 15.08838630 84695,6917.885,95.438,540.781,538.718,0.0
53567.0,STARLINK-4585,PAYLOAD,2024-02-28 12:32:53,15.0884058,0.0001485,53.2166,136.9694,105.6601,254.4555,0.00015343,2.155e-05,0.0,0 STARLINK-4585,1 53567U 22101AS  24059.52284176  .00002155  00000-0  15343-3 0  9999,2 53567  53.2166 136.9694 0001485 105.6601 254.4555 15.08840580 84704,6917.879,95.438,540.771,538.716,0.0
53567.0,STARLINK-4585,PAYLOAD,2024-02-28 15:43:39,15.08841562,0.0001488,53.2165,136.3747,105.4366,254.679,0.00015573,2.191e-05,0.0,0 STARLINK-4585,1 53567U 22101AS  24059.65532140  .00002191  00000-0  15573-3 0  9995,2 53567  53.2165 136.3747 0001488 105.4366 254.6790 15.08841562 84721,6917.876,95.437,540.77,538.711,0.0
53567.0,STARLINK-4585,PAYLOAD,2024-02-29 10:48:18,15.08838879,0.0001644,53.2178,132.8039,108.4824,251.6347,2.4206e-05,9.7e-07,0.0,0 STARLINK-4585,1 53567U 22101AS  24060.45020851  .00000097  00000-0  24206-4 0  9993,2 53567  53.2178 132.8039 0001644 108.4824 251.6347 15.08838879 84841,6917.884,95.438,540.886,538.612,0.0
53567.0,STARLINK-4585,PAYLOAD,2024-02-29 12:23:41,15.08839234,0.0001509,53.2175,132.5074,79.0794,281.0368,1.8098e-05,0.0,0.0,0 STARLINK-4585,1 53567U 22101AS  24060.51644950  .00000000  00000-0  18098-4 0  9998,2 53567  53.2175 132.5074 0001509  79.0794 281.0368 15.08839234 84850,6917.883,95.438,540.792,538.704,0.0
53567.0,STARLINK-4585,PAYLOAD,2024-02-29 21:55:59,15.08846835,0.0001425,53.2174,130.7225,89.7837,270.3319,1.5745e-05,-3.7e-07,0.0,0 STARLINK-4585,1 53567U 22101AS  24060.91388267 -.00000037  00000-0  15745-4 0  9995,2 53567  53.2174 130.7225 0001425  89.7837 270.3319 15.08846835 84919,6917.859,95.437,540.71,538.739,0.0
53567.0,STARLINK-4585,PAYLOAD,2024-03-01 10:39:03,15.08853597,0.000131,53.2167,128.3437,92.423,267.6912,0.00013512,1.864e-05,0.0,0 STARLINK-4585,1 53567U 22101AS  24061.44379575  .00001864  00000-0  13512-3 0  9993,2 53567  53.2167 128.3437 0001310  92.4230 267.6912 15.08853597 84999,6917.839,95.437,540.61,538.798,0.0
53567.0,STARLINK-4585,PAYLOAD,2024-03-02 10:29:51,15.08846085,0.0001484,53.2169,123.8835,85.9541,274.162,0.00013805,1.91e-05,0.0,0 STARLINK-4585,1 53567U 22101AS  24062.43739831  .00001910  00000-0  13805-3 0  9995,2 53567  53.2169 123.8835 0001484  85.9541 274.1620 15.08846085 85148,6917.862,95.437,540.753,538.7,0.0
53567.0,STARLINK-4585,PAYLOAD,2024-03-03 10:20:38,15.08840913,0.0001386,53.2167,119.4237,82.5737,277.5412,-1.0696e-05,-4.58e-06,0.0,0 STARLINK-4585,1 53567U 22101AS  24063.43100347 -.00000458  00000-0 -10696-4 0  9994,2 53567  53.2167 119.4237 0001386  82.5737 277.5412 15.08840913 85290,6917.878,95.437,540.701,538.784,0.0
53567.0,STARLINK-4585,PAYLOAD,2024-03-03 13:31:24,15.08844863,0.0001533,53.2168,118.8263,90.0528,270.0639,-3.1712e-05,-7.93e-06,0.0,0 STARLINK-4585,1 53567U 22101AS  24063.56348052 -.00000793  00000-0 -31712-4 0  9999,2 53567  53.2168 118.8263 0001533  90.0528 270.0639 15.08844863 85319,6917.866,95.437,540.791,538.67,0.0
53567.0,STARLINK-4585,PAYLOAD,2024-03-04 10:11:24,15.08855909,0.0001598,53.2175,114.959,88.3383,271.7792,9.9846e-05,1.302e-05,0.0,0 STARLINK-4585,1 53567U 22101AS  24064.42458956  .00001302  00000-0  99846-4 0  9997,2 53567  53.2175 114.9590 0001598  88.3383 271.7792 15.08855909 85442,6917.832,95.437,540.802,538.591,0.0
53567.0,STARLINK-4585,PAYLOAD,2024-03-05 03:40:40,15.08827495,0.0001616,53.2162,111.6895,77.392,282.7253,-8.5993e-05,-1.656e-05,0.0,0 STARLINK-4585,1 53567U 22101AS  24065.15325006 -.00001656  00000-0 -85993-4 0  9999,2 53567  53.2162 111.6895 0001616  77.3920 282.7253 15.08827495 85551,6917.919,95.438,540.902,538.666,0.0
53567.0,STARLINK-4585,PAYLOAD,2024-03-05 13:13:00,15.08823871,0.0001553,53.2162,109.904,95.6903,264.4267,-0.00010622,-1.977e-05,0.0,0 STARLINK-4585,1 53567U 22101AS  24065.55069471 -.00001977  00000-0 -10622-3 0  9996,2 53567  53.2162 109.9040 0001553  95.6903 264.4267 15.08823871 85610,6917.93,95.439,540.869,538.72,0.0
53567.0,STARLINK-4585,PAYLOAD,2024-03-06 08:17:37,15.08841231,0.0001557,53.2161,106.3375,99.0957,261.0211,4.8672e-05,4.87e-06,0.0,0 STARLINK-4585,1 53567U 22101AS  24066.34557068  .00000487  00000-0  48672-4 0  9998,2 53567  53.2161 106.3375 0001557  99.0957 261.0211 15.08841231 85737,6917.877,95.437,540.819,538.665,0.0
53567.0,STARLINK-4585,PAYLOAD,2024-03-07 11:19:11,15.08843194,0.0001528,53.2157,101.2827,94.7705,265.3462,0.00025739,3.811e-05,0.0,0 STARLINK-4585,1 53567U 22101AS  24067.47165542  .00003811  00000-0  25739-3 0  9997,2 53567  53.2157 101.2827 0001528  94.7705 265.3462 15.08843194 85903,6917.871,95.437,540.793,538.679,0.0
53567.0,STARLINK-4585,PAYLOAD,2024-03-08 09:34:34,15.08851981,0.0001582,53.2158,97.1191,92.3034,267.8139,0.00025026,3.698e-05,0.0,0 STARLINK-4585,1 53567U 22101AS  24068.39901008  .00003698  00000-0  25026-3 0  9996,2 53567  53.2158  97.1191 0001582  92.3034 267.8139 15.08851981 86047,6917.844,95.437,540.803,538.614,0.0
53567.0,STARLINK-4585,PAYLOAD,2024-03-08 19:06:53,15.0884814,0.0001677,53.2165,95.3352,91.6325,268.4859,0.00017737,2.537e-05,0.0,0 STARLINK-4585,1 53567U 22101AS  24068.79645097  .00002537  00000-0  17737-3 0  9994,2 53567  53.2165  95.3352 0001677  91.6325 268.4859 15.08848140 86100,6917.856,95.437,540.881,538.56,0.0
53567.0,STARLINK-4585,PAYLOAD,2024-03-09 11:00:44,15.08849942,0.0001712,53.2153,92.361,92.2455,267.8733,0.00021416,3.123e-05,0.0,0 STARLINK-4585,1 53567U 22101AS  24069.45884932  .00003123  00000-0  21416-3 0  9992,2 53567  53.2153  92.3610 0001712  92.2455 267.8733 15.08849942 86208,6917.85,95.437,540.899,538.531,0.0
53567.0,STARLINK-4585,PAYLOAD,2024-03-09 18:57:40,15.08839217,0.0001878,53.2158,90.8718,98.6724,261.4481,1.691e-05,-1.9e-07,0.0,0 STARLINK-4585,1 53567U 22101AS  24069.79005288 -.00000019  00000-0  16910-4 0  9994,2 53567  53.2158  90.8718 0001878  98.6724 261.4481 15.08839217 86256,6917.883,95.438,541.047,538.449,0.0
53567.0,STARLINK-4585,PAYLOAD,2024-03-10 07:40:45,15.08843492,0.0001437,53.2163,88.494,91.8007,268.315,7.6174e-05,9.25e-06,0.0,0 STARLINK-4585,1 53567U 22101AS  24070.31997028  .00000925  00000-0  76174-4 0  9999,2 53567  53.2163  88.4940 0001437  91.8007 268.3150 15.08843492 86330,6917.87,95.437,540.729,538.741,0.0
